ONEWEB-0688             
1 61596U 24188C   25254.19403122 -.00000429  00000+0 -11375-2 0  9995
2 61596  87.9035  61.4071 0002926  81.8896 278.2567 13.17653041 49156
ONEWEB-0689             
1 61597U 24188D   25254.24977710  .00000032  00000+0  53764-4 0  9999
2 61597  87.8747  76.6292 0001851  98.3620 261.7718 13.11419514 47896
ONEWEB-0690             
1 61598U 24188E   25254.25995905  .00000424  00000+0  11611-2 0  9995
2 61598  87.8793  76.6074 0001333  64.8719 295.2548 13.11418600 48077
ONEWEB-0691             
1 61599U 24188F   25254.25486984  .00000293  00000+0  79214-3 0  9996
2 61599  87.8711  76.5660 0002044  81.9350 278.2010 13.11419549 47920
ONEWEB-0692             
1 61600U 24188G   25254.19894579  .00000437  00000+0  11966-2 0  9994
2 61600  87.8768  76.6842 0001355 123.2915 236.8343 13.11416643 47908
ONEWEB-0693             
1 61601U 24188H   25254.20584938  .00000018  00000+0  13016-4 0  9997
2 61601  87.9035  61.4233 0001653  62.2446 297.8853 13.17647317 49146
ONEWEB-0695             
1 61602U 24188J   25253.94628362  .00000219  00000+0  58275-3 0  9996
2 61602  87.8773  76.7216 0001737 107.6160 252.5158 13.11418091 47867
ONEWEB-0697             
1 61603U 24188K   25254.20739629  .00000237  00000+0  63342-3 0  9997
2 61603  87.8769  76.6605 0001276 118.3846 241.7411 13.11415893 47883
ONEWEB-0698             
1 61604U 24188L   25254.26165574  .00000498  00000+0  13704-2 0  9991
2 61604  87.8772  76.6641 0000592  92.6018 267.5177 13.11418191 47916
ONEWEB-0699             
1 61605U 24188M   25253.97613433 -.00000359  00000+0 -10644-2 0  9999
2 61605  87.8754  91.9360 0001204 101.2854 258.8409 13.10375317 46743
ONEWEB-0700             
1 61606U 24188N   25253.97779470 -.00000240  00000+0 -72443-3 0  9999
2 61606  87.8738  91.8209 0001775 108.2792 251.8529 13.10375476 46739
ONEWEB-0701             
1 61607U 24188P   25253.99440189  .00000530  00000+0  14813-2 0  9990
2 61607  87.8742  91.9372 0001150 113.2916 246.8333 13.10374557 46745
ONEWEB-0702             
1 61608U 24188Q   25253.92593102 -.00000599  00000+0 -17260-2 0  9994
2 61608  87.8710  76.6608 0001522 124.1433 235.9840 13.11416053 47888
ONEWEB-0704             
1 61609U 24188R   25253.98277810 -.00000034  00000+0 -13313-3 0  9996
2 61609  87.8768  91.8896 0001584 120.8997 239.2286 13.10376042 46721
ONEWEB-0705             
1 61610U 24188S   25253.98776496  .00000183  00000+0  48915-3 0  9991
2 61610  87.8749  91.9224 0002536 108.8160 251.3243 13.10375736 38890
ONEWEB-0706             
1 61611U 24188T   25253.97281500 -.00000477  00000+0 -14023-2 0  9998
2 61611  87.8746  91.9533 0001756 108.5366 251.5953 13.10376891 46813
ONEWEB-0707             
1 61612U 24188U   25253.97946363 -.00000212  00000+0 -64276-3 0  9997
2 61612  87.8753  91.9183 0001653 107.7743 252.3565 13.10374404 46758
