[{"OBJECT_NAME":"ONEWEB-0688","OBJECT_ID":"2024-188C","EPOCH":"2025-09-11T04:39:24.297408","MEAN_MOTION":13.17653041,"ECCENTRICITY":0.00029267,"INCLINATION":87.9035,"RA_OF_ASC_NODE":61.4071,"ARG_OF_PERICENTER":81.8896,"MEAN_ANOMALY":278.2567,"EPHEMERIS_TYPE":0,"CLASSIFICATION_TYPE":"U","NORAD_CAT_ID":61596,"ELEMENT_SET_NO":999,"REV_AT_EPOCH":4915,"BSTAR":-0.0011375121,"MEAN_MOTION_DOT":-4.29e-6,"MEAN_MOTION_DDOT":0},{"OBJECT_NAME":"ONEWEB-0689","OBJECT_ID":"2024-188D","EPOCH":"2025-09-11T05:59:40.741440","MEAN_MOTION":13.11419514,"ECCENTRICITY":0.00018519,"INCLINATION":87.8747,"RA_OF_ASC_NODE":76.6292,"ARG_OF_PERICENTER":98.362,"MEAN_ANOMALY":261.7718,"EPHEMERIS_TYPE":0,"CLASSIFICATION_TYPE":"U","NORAD_CAT_ID":61597,"ELEMENT_SET_NO":999,"REV_AT_EPOCH":4789,"BSTAR":5.3763814e-5,"MEAN_MOTION_DOT":3.2e-7,"MEAN_MOTION_DDOT":0},{"OBJECT_NAME":"ONEWEB-0690","OBJECT_ID":"2024-188E","EPOCH":"2025-09-11T06:14:20.461920","MEAN_MOTION":13.114186,"ECCENTRICITY":0.00013339,"INCLINATION":87.8793,"RA_OF_ASC_NODE":76.6074,"ARG_OF_PERICENTER":64.8719,"MEAN_ANOMALY":295.2548,"EPHEMERIS_TYPE":0,"CLASSIFICATION_TYPE":"U","NORAD_CAT_ID":61598,"ELEMENT_SET_NO":999,"REV_AT_EPOCH":4807,"BSTAR":0.0011611309,"MEAN_MOTION_DOT":4.24e-6,"MEAN_MOTION_DDOT":0},{"OBJECT_NAME":"ONEWEB-0691","OBJECT_ID":"2024-188F","EPOCH":"2025-09-11T06:07:00.754176","MEAN_MOTION":13.11419549,"ECCENTRICITY":0.00020443,"INCLINATION":87.8711,"RA_OF_ASC_NODE":76.566,"ARG_OF_PERICENTER":81.935,"MEAN_ANOMALY":278.201,"EPHEMERIS_TYPE":0,"CLASSIFICATION_TYPE":"U","NORAD_CAT_ID":61599,"ELEMENT_SET_NO":999,"REV_AT_EPOCH":4792,"BSTAR":0.00079214455,"MEAN_MOTION_DOT":2.93e-6,"MEAN_MOTION_DDOT":0},{"OBJECT_NAME":"ONEWEB-0692","OBJECT_ID":"2024-188G","EPOCH":"2025-09-11T04:46:28.916256","MEAN_MOTION":13.11416643,"ECCENTRICITY":0.00013556,"INCLINATION":87.8768,"RA_OF_ASC_NODE":76.6842,"ARG_OF_PERICENTER":123.2915,"MEAN_ANOMALY":236.8343,"EPHEMERIS_TYPE":0,"CLASSIFICATION_TYPE":"U","NORAD_CAT_ID":61600,"ELEMENT_SET_NO":999,"REV_AT_EPOCH":4790,"BSTAR":0.0011966373,"MEAN_MOTION_DOT":4.37e-6,"MEAN_MOTION_DDOT":0},{"OBJECT_NAME":"ONEWEB-0693","OBJECT_ID":"2024-188H","EPOCH":"2025-09-11T04:56:25.386432","MEAN_MOTION":13.17647317,"ECCENTRICITY":0.00016539,"INCLINATION":87.9035,"RA_OF_ASC_NODE":61.4233,"ARG_OF_PERICENTER":62.2446,"MEAN_ANOMALY":297.8853,"EPHEMERIS_TYPE":0,"CLASSIFICATION_TYPE":"U","NORAD_CAT_ID":61601,"ELEMENT_SET_NO":999,"REV_AT_EPOCH":4914,"BSTAR":1.301587e-5,"MEAN_MOTION_DOT":1.8e-7,"MEAN_MOTION_DDOT":0},{"OBJECT_NAME":"ONEWEB-0695","OBJECT_ID":"2024-188J","EPOCH":"2025-09-10T22:42:38.904768","MEAN_MOTION":13.11418091,"ECCENTRICITY":0.00017376,"INCLINATION":87.8773,"RA_OF_ASC_NODE":76.7216,"ARG_OF_PERICENTER":107.616,"MEAN_ANOMALY":252.5158,"EPHEMERIS_TYPE":0,"CLASSIFICATION_TYPE":"U","NORAD_CAT_ID":61602,"ELEMENT_SET_NO":999,"REV_AT_EPOCH":4786,"BSTAR":0.00058274574,"MEAN_MOTION_DOT":2.19e-6,"MEAN_MOTION_DDOT":0},{"OBJECT_NAME":"ONEWEB-0697","OBJECT_ID":"2024-188K","EPOCH":"2025-09-11T04:58:39.039456","MEAN_MOTION":13.11415893,"ECCENTRICITY":0.00012768,"INCLINATION":87.8769,"RA_OF_ASC_NODE":76.6605,"ARG_OF_PERICENTER":118.3846,"MEAN_ANOMALY":241.7411,"EPHEMERIS_TYPE":0,"CLASSIFICATION_TYPE":"U","NORAD_CAT_ID":61603,"ELEMENT_SET_NO":999,"REV_AT_EPOCH":4788,"BSTAR":0.00063342141,"MEAN_MOTION_DOT":2.37e-6,"MEAN_MOTION_DDOT":0},{"OBJECT_NAME":"ONEWEB-0698","OBJECT_ID":"2024-188L","EPOCH":"2025-09-11T06:16:47.055936","MEAN_MOTION":13.11418191,"ECCENTRICITY":5.92e-5,"INCLINATION":87.8772,"RA_OF_ASC_NODE":76.6641,"ARG_OF_PERICENTER":92.6018,"MEAN_ANOMALY":267.5177,"EPHEMERIS_TYPE":0,"CLASSIFICATION_TYPE":"U","NORAD_CAT_ID":61604,"ELEMENT_SET_NO":999,"REV_AT_EPOCH":4791,"BSTAR":0.0013704236,"MEAN_MOTION_DOT":4.98e-6,"MEAN_MOTION_DDOT":0},{"OBJECT_NAME":"ONEWEB-0699","OBJECT_ID":"2024-188M","EPOCH":"2025-09-10T23:25:38.006112","MEAN_MOTION":13.10375317,"ECCENTRICITY":0.00012044,"INCLINATION":87.8754,"RA_OF_ASC_NODE":91.936,"ARG_OF_PERICENTER":101.2854,"MEAN_ANOMALY":258.8409,"EPHEMERIS_TYPE":0,"CLASSIFICATION_TYPE":"U","NORAD_CAT_ID":61605,"ELEMENT_SET_NO":999,"REV_AT_EPOCH":4674,"BSTAR":-0.0010644409,"MEAN_MOTION_DOT":-3.59e-6,"MEAN_MOTION_DDOT":0},{"OBJECT_NAME":"ONEWEB-0700","OBJECT_ID":"2024-188N","EPOCH":"2025-09-10T23:28:01.462080","MEAN_MOTION":13.10375476,"ECCENTRICITY":0.00017756,"INCLINATION":87.8738,"RA_OF_ASC_NODE":91.8209,"ARG_OF_PERICENTER":108.2792,"MEAN_ANOMALY":251.8529,"EPHEMERIS_TYPE":0,"CLASSIFICATION_TYPE":"U","NORAD_CAT_ID":61606,"ELEMENT_SET_NO":999,"REV_AT_EPOCH":4673,"BSTAR":-0.00072443135,"MEAN_MOTION_DOT":-2.4e-6,"MEAN_MOTION_DDOT":0},{"OBJECT_NAME":"ONEWEB-0701","OBJECT_ID":"2024-188P","EPOCH":"2025-09-10T23:51:56.323296","MEAN_MOTION":13.10374557,"ECCENTRICITY":0.00011506,"INCLINATION":87.8742,"RA_OF_ASC_NODE":91.9372,"ARG_OF_PERICENTER":113.2916,"MEAN_ANOMALY":246.8333,"EPHEMERIS_TYPE":0,"CLASSIFICATION_TYPE":"U","NORAD_CAT_ID":61607,"ELEMENT_SET_NO":999,"REV_AT_EPOCH":4674,"BSTAR":0.001481251,"MEAN_MOTION_DOT":5.3e-6,"MEAN_MOTION_DDOT":0},{"OBJECT_NAME":"ONEWEB-0702","OBJECT_ID":"2024-188Q","EPOCH":"2025-09-10T22:13:20.440128","MEAN_MOTION":13.11416053,"ECCENTRICITY":0.00015221,"INCLINATION":87.871,"RA_OF_ASC_NODE":76.6608,"ARG_OF_PERICENTER":124.1433,"MEAN_ANOMALY":235.984,"EPHEMERIS_TYPE":0,"CLASSIFICATION_TYPE":"U","NORAD_CAT_ID":61608,"ELEMENT_SET_NO":999,"REV_AT_EPOCH":4788,"BSTAR":-0.0017259641,"MEAN_MOTION_DOT":-5.99e-6,"MEAN_MOTION_DDOT":0},{"OBJECT_NAME":"ONEWEB-0704","OBJECT_ID":"2024-188R","EPOCH":"2025-09-10T23:35:12.027840","MEAN_MOTION":13.10376042,"ECCENTRICITY":0.00015847,"INCLINATION":87.8768,"RA_OF_ASC_NODE":91.8896,"ARG_OF_PERICENTER":120.8997,"MEAN_ANOMALY":239.2286,"EPHEMERIS_TYPE":0,"CLASSIFICATION_TYPE":"U","NORAD_CAT_ID":61609,"ELEMENT_SET_NO":999,"REV_AT_EPOCH":4672,"BSTAR":-0.00013313122,"MEAN_MOTION_DOT":-3.4e-7,"MEAN_MOTION_DDOT":0},{"OBJECT_NAME":"ONEWEB-0705","OBJECT_ID":"2024-188S","EPOCH":"2025-09-10T23:42:22.892544","MEAN_MOTION":13.10375736,"ECCENTRICITY":0.00025362,"INCLINATION":87.8749,"RA_OF_ASC_NODE":91.9224,"ARG_OF_PERICENTER":108.816,"MEAN_ANOMALY":251.3243,"EPHEMERIS_TYPE":0,"CLASSIFICATION_TYPE":"U","NORAD_CAT_ID":61610,"ELEMENT_SET_NO":999,"REV_AT_EPOCH":3889,"BSTAR":0.00048914929,"MEAN_MOTION_DOT":1.83e-6,"MEAN_MOTION_DDOT":0},{"OBJECT_NAME":"ONEWEB-0706","OBJECT_ID":"2024-188T","EPOCH":"2025-09-10T23:20:51.216000","MEAN_MOTION":13.10376891,"ECCENTRICITY":0.00017568,"INCLINATION":87.8746,"RA_OF_ASC_NODE":91.9533,"ARG_OF_PERICENTER":108.5366,"MEAN_ANOMALY":251.5953,"EPHEMERIS_TYPE":0,"CLASSIFICATION_TYPE":"U","NORAD_CAT_ID":61611,"ELEMENT_SET_NO":999,"REV_AT_EPOCH":4681,"BSTAR":-0.0014022589,"MEAN_MOTION_DOT":-4.77e-6,"MEAN_MOTION_DDOT":0},{"OBJECT_NAME":"ONEWEB-0707","OBJECT_ID":"2024-188U","EPOCH":"2025-09-10T23:30:25.657632","MEAN_MOTION":13.10374404,"ECCENTRICITY":0.00016536,"INCLINATION":87.8753,"RA_OF_ASC_NODE":91.9183,"ARG_OF_PERICENTER":107.7743,"MEAN_ANOMALY":252.3565,"EPHEMERIS_TYPE":0,"CLASSIFICATION_TYPE":"U","NORAD_CAT_ID":61612,"ELEMENT_SET_NO":999,"REV_AT_EPOCH":4675,"BSTAR":-0.00064276137,"MEAN_MOTION_DOT":-2.12e-6,"MEAN_MOTION_DDOT":0}]
